ONEWEB-0555             
1 56057U 23043M   25014.90799695 -.00000047  00000+0 -15530-3 0  9990
2 56057  87.9110 332.0400 0002324  69.3334 290.8046 13.16593075 90763
ONEWEB-0557             
1 56058U 23043N   25014.92225247  .00000000  00000+0 -33069-4 0  9996
2 56058  87.9112 332.0615 0002263  57.2983 302.8366 13.16593387 90767
ONEWEB-0558             
1 56059U 23043P   25014.92224560  .00000047  00000+0  82593-4 0  9990
2 56059  87.9315 347.2473 0001826 101.0800 259.0539 13.21826420 89770
ONEWEB-0559             
1 56060U 23043Q   25014.91121285  .00000027  00000+0  33485-4 0  9995
2 56060  87.9314 347.2443 0001339  92.0636 268.0651 13.21826032 89788
ONEWEB-0566             
1 56061U 23043R   25014.90490083 -.00000005  00000+0 -44251-4 0  9991
2 56061  87.9313 347.2451 0001668 103.4646 256.6674 13.21824478 89768
ONEWEB-0568             
1 56062U 23043S   25014.86367078  .00000115  00000+0  26640-3 0  9995
2 56062  87.9112 332.0384 0002055  76.8044 283.3316 13.16593611 90778
ONEWEB-0574             
1 56063U 23043T   25014.89856677 -.00000069  00000+0 -19869-3 0  9992
2 56063  87.9311 347.2373 0001962  85.2483 274.8875 13.21828561 89801
ONEWEB-0575             
1 56064U 23043U   25014.93333838  .00000106  00000+0  24398-3 0  9990
2 56064  87.9112 332.0362 0001863  64.6118 295.5205 13.16593725 90777
ONEWEB-0576             
1 56065U 23043V   25014.83834983 -.00000042  00000+0 -14432-3 0  9996
2 56065  87.9110 332.0476 0001945  74.6421 285.4925 13.16595211 90758
ONEWEB-0577             
1 56066U 23043W   25014.92066053 -.00000005  00000+0 -47111-4 0  9992
2 56066  87.9110 332.0314 0001838  57.6807 302.4501 13.16593227 90799
ONEWEB-0578             
1 56067U 23043X   25014.88595558  .00000029  00000+0  39641-4 0  9998
2 56067  87.9317 347.2451 0001920  80.7510 279.3841 13.21828017 89767
ONEWEB-0579             
1 56068U 23043Y   25014.87650531  .00000075  00000+0  14928-3 0  9992
2 56068  87.9314 347.2377 0001454  89.6307 270.4994 13.21826443 89779
ONEWEB-0581             
1 56069U 23043Z   25014.92700286  .00000082  00000+0  18219-3 0  9997
2 56069  87.9112 332.0605 0001472  66.1273 294.0012 13.16593411 90768
ONEWEB-0609             
1 56070U 23043AA  25014.92912634  .00000042  00000+0  76755-4 0  9997
2 56070  87.9075   2.4047 0001826  89.6110 270.5230 13.15547824 88291
ONEWEB-0613             
1 56071U 23043AB  25014.92439408 -.00000007  00000+0 -53633-4 0  9994
2 56071  87.9079   2.4101 0001592  93.9920 266.1393 13.15550003 88298
ONEWEB-0630             
1 56072U 23043AC  25014.91961304 -.00000070  00000+0 -21900-3 0  9990
2 56072  87.9076   2.3944 0001664  97.1040 263.0279 13.15546976 88281
ONEWEB-0632             
1 56073U 23043AD  25014.91486596 -.00000077  00000+0 -23930-3 0  9998
2 56073  87.9076   2.4147 0001549  80.0867 280.0439 13.15548798 88289
ONEWEB-0633             
1 56074U 23043AE  25014.90855146 -.00001760  00000+0 -47117-2 0  9991
2 56074  87.9076   2.3892 0001706 102.7528 257.3793 13.15529544 88263
ONEWEB-0634             
1 56075U 23043AF  25014.89425376 -.00000040  00000+0 -14022-3 0  9998
2 56075  87.9082   2.4177 0002123  92.2955 267.8418 13.15546051 88250
ONEWEB-0635             
1 56076U 23043AG  25014.88951593 -.00000014  00000+0 -70880-4 0  9999
2 56076  87.9052   2.4465 0001525  76.0805 284.0495 13.15548511 88289
ONEWEB-0636             
1 56077U 23043AH  25014.88159019  .00000100  00000+0  23274-3 0  9991
2 56077  87.9078   2.4404 0001578  78.9011 281.2297 13.15548033 88265
ONEWEB-0637             
1 56078U 23043AJ  25014.87524997  .00001314  00000+0  34566-2 0  9995
2 56078  87.9080   2.4205 0001858  79.1106 281.0233 13.15548829 88280
ONEWEB-0647             
1 56079U 23043AK  25014.49021344  .00000136  00000+0  32732-3 0  9997
2 56079  87.9077   2.5108 0001555  87.0291 273.1017 13.15548089 88221
ONEWEB-0651             
1 56080U 23043AL  25014.94179419  .00000150  00000+0  36466-3 0  9990
2 56080  87.9080   2.4043 0001741  75.3315 284.8008 13.15547128 89489
ONEWEB-0718             
1 56081U 23043AM  25014.93705371  .00000129  00000+0  30947-3 0  9996
2 56081  87.9078   2.3898 0002287  91.1171 269.0222 13.15549974 88298
ONEWEB-0561             
1 56710U 23068A   25014.49103409  .00000095  00000+0  20065-3 0  9999
2 56710  87.9238  17.6793 0001313  74.0669 286.0609 13.20772866 81036
ONEWEB-0668             
1 56711U 23068B   25014.92938563  .00000119  00000+0  27796-3 0  9990
2 56711  87.9102 332.0250 0002392  82.8725 277.2678 13.16594643 83587
ONEWEB-0676             
1 56712U 23068C   25014.90958481  .00000021  00000+0  20374-4 0  9998
2 56712  87.9109 332.0500 0001425  67.2792 292.8489 13.16593516 83503
ONEWEB-0677             
1 56713U 23068D   25014.93450934  .00000043  00000+0  73086-4 0  9994
2 56713  87.9238  17.5619 0001810  80.0048 280.1289 13.20774739 81394
ONEWEB-0678             
1 56714U 23068E   25014.90535242 -.00000057  00000+0 -18629-3 0  9996
2 56714  87.9080   2.3644 0001527  94.6025 265.5279 13.15547626 81147
ONEWEB-0679             
1 56715U 23068F   25014.87870789  .00000071  00000+0  15338-3 0  9999
2 56715  87.9109 332.0534 0002153  66.7472 293.3886 13.16593751 83521
ONEWEB-0680             
1 56716U 23068G   25014.87965091  .00000036  00000+0  54769-4 0  9994
2 56716  87.9293 347.2724 0002559  81.1777 278.9646 13.21827810 82629
ONEWEB-0681             
1 56717U 23068H   25014.88990665 -.00000022  00000+0 -84947-4 0  9999
2 56717  87.9312 347.2658 0001660  49.4453 310.6826 13.21822312 82613
ONEWEB-0682             
1 56718U 23068J   25014.93150739  .00000068  00000+0  14729-3 0  9994
2 56718  87.9078   2.3945 0002276  81.2251 278.9137 13.15549368 81312
ONEWEB-0683             
1 56719U 23068K   25014.95289334  .00000177  00000+0  43729-3 0  9994
2 56719  87.9079   2.3621 0002103  83.8940 276.2430 13.15548077 81286
ONEWEB-0684             
1 56720U 23068L   25014.96080450  .00000123  00000+0  29137-3 0  9993
2 56720  87.9053   2.4170 0001975 133.4984 226.6311 13.15547160 81117
ONEWEB-0686             
1 56721U 23068M   25014.86841447  .00000128  00000+0  30170-3 0  9998
2 56721  87.9108 332.0916 0002076  89.3623 270.7746 13.16593243 83513
ONEWEB-0694             
1 56722U 23068N   25014.91117198  .00000019  00000+0  16643-4 0  9993
2 56722  87.9104 332.0028 0002207  77.8368 282.3010 13.16594288 83577
ONEWEB-0696             
1 56723U 23068P   25014.91802843 -.00000070  00000+0 -22037-3 0  9994
2 56723  87.9078   2.4204 0001546  94.0059 266.1248 13.15547393 81222
ONEWEB-0703             
1 56724U 23068Q   25014.92753304  .00000004  00000+0 -22339-4 0  9995
2 56724  87.9078   2.4383 0000637 103.4437 256.6765 13.15546978 81110
ONEWEB-0721             
1 56725U 23068R   25014.72599468  .00000092  00000+0  87264-4 0  9997
2 56725  86.6743 251.2189 0006906 271.8280  88.2088 13.69057516 89338
ONEWEB-0015             
1 61594U 24188A   25014.91667824 -.00866298  00000+0 -13305+0 0  9994
2 61594  86.6201 133.3034 0002865 271.8429 199.9948 14.76524918  5754
ONEWEB-0687             
1 61595U 24188B   25014.82232069  .00003888  00000+0  47221-3 0  9998
2 61595  86.5795 133.3399 0002235 278.9181  81.1789 14.83295017 15805
ONEWEB-0688             
1 61596U 24188C   25014.82565128  .00003930  00000+0  47730-3 0  9997
2 61596  86.5803 133.3577 0001823 284.0399  76.0622 14.83296738 15805
ONEWEB-0689             
1 61597U 24188D   25014.91667824 -.00818621  00000+0 -15119+0 0  9999
2 61597  86.6686 133.3538 0000935  46.3475 189.6070 14.68388860  5673
ONEWEB-0690             
1 61598U 24188E   25014.91667824 -.00809645  00000+0 -15915+0 0  9990
2 61598  86.6853 133.4251 0003397 269.9474 295.2655 14.65584827  5671
ONEWEB-0691             
1 61599U 24188F   25014.91667824 -.00806781  00000+0 -14369+0 0  9991
2 61599  86.6736 133.4215 0002875 270.4466  32.1795 14.69933635  5728
ONEWEB-0692             
1 61600U 24188G   25014.91667824 -.00775861  00000+0 -14259+0 0  9996
2 61600  86.6745 133.3898 0001348 357.2977 216.6805 14.68456814  5710
ONEWEB-0693             
1 61601U 24188H   25014.82598984  .00003369  00000+0  40875-3 0  9999
2 61601  86.5718 133.2779 0000537  11.6271 348.4965 14.83292509 15802
ONEWEB-0695             
1 61602U 24188J   25014.91667824 -.00829645  00000+0 -15260+0 0  9991
2 61602  86.6723 133.4027 0000528  59.2280 166.8940 14.68608605 14058
ONEWEB-0697             
1 61603U 24188K   25014.91667824 -.00770729  00000+0 -14431+0 0  9999
2 61603  86.6755 133.3741 0001801  45.0450 116.3657 14.67615388 14086
ONEWEB-0698             
1 61604U 24188L   25014.91667824 -.00804938  00000+0 -14742+0 0  9995
2 61604  86.6747 133.4007 0003082 285.3054   5.6858 14.68701369  4714
ONEWEB-0699             
1 61605U 24188M   25014.91667824  .00000014  00000+0  00000+0 0  9999
2 61605  87.6339 139.8141 0001826 356.6018 223.2366 13.45150081 13500
ONEWEB-0700             
1 61606U 24188N   25014.91667824  .00000014  00000+0  00000+0 0  9990
2 61606  87.6322 139.8158 0000772 322.5500 324.2384 13.47415651 13565
ONEWEB-0701             
1 61607U 24188P   25014.91667824  .00000014  00000+0  00000+0 0  9991
2 61607  87.6587 139.7927 0002359 303.6329  74.2295 13.48631970  5383
ONEWEB-0702             
1 61608U 24188Q   25014.91667824 -.00785912  00000+0 -14261+0 0  9995
2 61608  86.6784 133.4239 0003276 277.6728 355.0479 14.69041966  5772
ONEWEB-0704             
1 61609U 24188R   25014.91667824  .00000014  00000+0  00000+0 0  9993
2 61609  87.6114 139.8308 0003042  68.4553 212.7613 13.44444914 13502
ONEWEB-0705             
1 61610U 24188S   25014.91667824  .00000014  00000+0  00000+0 0  9995
2 61610  87.6605 139.8019 0003556   6.1414  73.6919 13.49572961 13662
ONEWEB-0706             
1 61611U 24188T   25014.91667824  .00000014  00000+0  00000+0 0  9996
2 61611  87.6518 139.8173 0002448 314.2005 255.6386 13.48788283 13480
